#aV2008  1 14  0  0   .00000000      96 DD+AD WGS84 FIT  NGA
## 1462  86400.00000000   900.00000000 54479  .0000000000000
+   31     1  2  3  4  5  6  8  9 10 11 12 13 14 15 16 17 18
+         19 20 21 22 23 24 25 26 27 28 29 30 31 32  0  0  0
+          0  0  0  0  0  0  0  0  0  0  0  0  0  0  0  0  0
+          0  0  0  0  0  0  0  0  0  0  0  0  0  0  0  0  0
+          0  0  0  0  0  0  0  0  0  0  0  0  0  0  0  0  0
++         0  0  0  0  0  0  0  0  0  0  0  0  0  0  0  0  0
++         0  0  0  0  0  0  0  0  0  0  0  0  0  0  0  0  0
++         0  0  0  0  0  0  0  0  0  0  0  0  0  0  0  0  0
++         0  0  0  0  0  0  0  0  0  0  0  0  0  0  0  0  0
++         0  0  0  0  0  0  0  0  0  0  0  0  0  0  0  0  0
%c cc cc ccc ccc cccc cccc cccc cccc ccccc ccccc ccccc ccccc
%c cc cc ccc ccc cccc cccc cccc cccc ccccc ccccc ccccc ccccc
%f  0.0000000  0.000000000  0.00000000000  0.000000000000000
%f  0.0000000  0.000000000  0.00000000000  0.000000000000000
%i    0    0    0    0      0      0      0      0         0
%i    0    0    0    0      0      0      0      0         0
/*      NGA, ST. LOUIS,MO.                                  
/*   EPHEMERIS COMPUTED FROM  3 DAYS OF DATA                
/* CCCCCCCCCCCCCCCCCCCCCCCCCCCCCCCCCCCCCCCCCCCCCCCCCCCCCCCCC
/* CCCCCCCCCCCCCCCCCCCCCCCCCCCCCCCCCCCCCCCCCCCCCCCCCCCCCCCCC
*  2008  1 14 21 30   .00000000                                                 
P  1 -15454.251083  12173.289960 -17586.777536    179.046858                    
V  1   5061.840985 -22198.213246 -19637.758968       .024819                    
P  2  21861.544026 -12638.918647   7494.775060    166.296579                    
V  2  10448.558262    286.140285 -29593.500683       .029928                    
P  3 -11074.146950  21024.907083  11255.858798    172.859131                    
V  3  -1833.347447 -15197.517683  26361.198235       .055016                    
P  4  26050.948536  -5050.849650  -3549.611097    -51.707493                    
V  4  -3326.907965   4113.769877 -30705.735872      -.059002                    
P  5 -13686.107233 -20348.885126 -10638.220211    646.500592                    
V  5  12092.052833   5798.257099 -27181.719405       .170843                    
P  6  -9872.216197 -17595.530535  17442.308584    152.378277                    
V  6   6081.785218 -21146.005797 -18112.034521      -.154523                    
P  8  24402.747514   1285.382074  10874.340134   -136.985862                    
V  8 -12945.813578   4904.594493  27781.782870      -.013235                    
P  9   1860.803689 -16278.678484 -21488.199273    105.705690                    
V  9  24638.537849  -7929.983236   8557.494405       .019340                    
P 10   9166.824479 -12011.716325  21701.711473   -209.027076                    
V 10  20194.785665  19195.757412   2407.417399      -.153247                    
P 11   2310.517741  17196.467789 -20201.795010     26.978486                    
V 11 -23357.296328  10821.776896   6914.611937       .000785                    
P 12  -8353.447530 -20978.409676 -13952.118205   -354.193350                    
V 12  14493.301501  10605.081115 -24389.373741      -.009577                    
P 13   8000.289211  16923.276654  18750.915406    234.231794                    
V 13  -7196.448681  22848.605053 -17426.413483       .022690                    
P 14 -14924.907737    353.395542 -21855.353817   -305.557482                    
V 14   6564.966828 -27149.061062  -4987.828669       .029010                    
P 15   6430.819006 -25748.577639   1211.441241    -71.506542                    
V 15   2530.249166   2084.577805  31625.578505      -.011327                    
P 16 -13163.647284   8166.750119  21666.755749    131.731320                    
V 16 -19504.244340 -19104.709784  -4494.847001       .007677                    
P 17  15401.571398    675.732234 -21597.168748     44.406712                    
V 17  -5983.432119  26832.536772  -3571.625526      -.007018                    
P 18 -19622.839157 -18105.507130  -1492.887516   -212.169119                    
V 18    550.707850  -3495.656092  31214.447228       .027670                    
P 19  -8030.215544  25217.172515    651.374919     16.693951                    
V 19  -2736.894411  -1584.377050  31766.202266       .016088                    
P 20  10688.989347  21201.974062 -12060.252132    122.567491                    
V 20 -12992.963329  -8208.676471 -26133.877616      -.007397                    
P 21 -18709.455885  -8108.619631  17474.834694     73.622198                    
V 21  20481.873444  -7478.011973  18030.240074      -.006771                    
P 22 -21366.598399  -7681.638351 -13654.031070    206.974586                    
V 22 -10581.264870 -14309.567732  24289.029601       .008067                    
P 23    190.373672  25028.128292   8465.032022    326.298104                    
V 23  -4869.916621  10057.155378 -29630.747684       .030223                    
P 24  -5261.526457 -14573.401094  21735.882396     62.418246                    
V 24  26313.396204  -6988.374781   1983.974543       .030782                    
P 25  12278.274330  10885.185392  21222.279653    500.582831                    
V 25 -23828.031906  10752.856609   8575.947531       .034722                    
P 26   8900.965027 -24402.948038   3367.347109    155.508040                    
V 26    911.487638   5333.089876  32452.221801       .107326                    
P 27  17997.942643   7151.510777  18925.050597    160.917712                    
V 27 -20733.425305   8999.519933  16747.375320       .025135                    
P 28  21762.461751  10409.745462 -11134.392366    -13.669412                    
V 28   8893.711120  11739.980917  27125.229676      -.006142                    
P 29  -5621.418563 -21254.956312  15042.183927    -79.764767                    
V 29   6504.468659 -17853.033989 -22989.514513       .096548                    
P 30 -17529.759815 -19526.192834  -4771.152681     59.917782                    
V 30   6250.674213   1374.852880 -30634.031469       .014257                    
P 31 -25568.657539   7255.247823  -1055.843510     -5.326608                    
V 31    739.316967  -2948.890625 -31771.649123      -.014835                    
P 32 -17866.782466   -170.757078 -19137.777472    201.804126                    
V 32 -16071.441267 -19606.732118  14985.246335       .105618                    
EOF
